*******************************************************************************
JPL/HORIZONS             4019 Klavetter (1981 EK14)        2023-Sep-04 11:26:50
Rec #:    4019 (+COV) Soln.date: 2023-Aug-23_15:27:57   # obs: 2498 (1954-2023)
 
IAU76/J2000 helio. ecliptic osc. elements (au, days, deg., period=Julian yrs):
 
  EPOCH=  2457662.5 ! 2016-Oct-01.00 (TDB)         Residual RMS= .26577
   EC= .1273805343838527   QR= 2.040389720079141   TP= 2457298.3488309486
   OM= 262.638904187953    W=  145.7817043569567   IN= 2.482680672973643
   A= 2.338235394094084    MA= 100.3814436249757   ADIST= 2.636081068109026
   PER= 3.57553            N= .275658716           ANGMOM= .026089951
   DAN= 2.57111            DDN= 2.08109            L= 48.445624
   B= 1.3958304            MOID= 1.0503            TP= 2015-Oct-02.8488309486
 
Asteroid physical parameters (km, seconds, rotational period in hours):
   GM= n.a.                RAD= 1.6915             ROTPER= 4.671
   H= 14.84                G= .150                 B-V= n.a.
                           ALBEDO= .225            STYP= n.a.

ASTEROID comments: 
1: soln ref.= JPL#36, OCC=0
2: source=ORB
*******************************************************************************


*******************************************************************************
Ephemeris / API_USER Mon Sep  4 11:26:50 2023 Pasadena, USA      / Horizons
*******************************************************************************
Target body name: 4019 Klavetter (1981 EK14)      {source: JPL#36}
Center body name: Solar System Barycenter (0)     {source: DE441}
Center-site name: BODY CENTER
*******************************************************************************
Start time      : A.D. 2023-Aug-12 00:00:00.0000 TDB
Stop  time      : A.D. 2023-Aug-13 00:00:00.0000 TDB
Step-size       : 2880 minutes
*******************************************************************************
Center geodetic : 0.0, 0.0, 0.0                   {E-lon(deg),Lat(deg),Alt(km)}
Center cylindric: 0.0, 0.0, 0.0                   {E-lon(deg),Dxy(km),Dz(km)}
Center radii    : (undefined)
Small perturbers: Yes                             {source: SB441-N16}
Output units    : KM-S
Calendar mode   : Mixed Julian/Gregorian
Output type     : GEOMETRIC cartesian states
Output format   : 2 (position and velocity)
Reference frame : Ecliptic of J2000.0
*******************************************************************************
Initial IAU76/J2000 heliocentric ecliptic osculating elements (au, days, deg.):
  EPOCH=  2457662.5 ! 2016-Oct-01.00 (TDB)         Residual RMS= .26577        
   EC= .1273805343838527   QR= 2.040389720079141   TP= 2457298.3488309486      
   OM= 262.638904187953    W=  145.7817043569567   IN= 2.482680672973643       
  Equivalent ICRF heliocentric cartesian coordinates (au, au/d):
   X=-2.314065561877968E+00  Y= 7.059151373266052E-01  Z= 1.932087487962573E-01
  VX=-4.464921525704791E-03 VY=-8.997297158048367E-03 VZ=-4.050332437591871E-03
Asteroid physical parameters (km, seconds, rotational period in hours):        
   GM= n.a.                RAD= 1.6915             ROTPER= 4.671               
   H= 14.84                G= .150                 B-V= n.a.                   
                           ALBEDO= .225            STYP= n.a.                  
*******************************************************************************
JDTDB
   X     Y     Z
   VX    VY    VZ
*******************************************************************************
$$SOE
2460168.500000000 = A.D. 2023-Aug-12 00:00:00.0000 TDB 
 X =-2.389924119941242E+08 Y = 2.439053823255197E+08 Z =-1.159174099640557E+07
 VX=-1.592013436121387E+01 VY=-1.205037609731908E+01 VZ=-6.164527702389631E-01
$$EOE
*******************************************************************************
 
TIME

  Barycentric Dynamical Time ("TDB" or T_eph) output was requested. This
continuous coordinate time is equivalent to the relativistic proper time
of a clock at rest in a reference frame co-moving with the solar system
barycenter but outside the system's gravity well. It is the independent
variable in the solar system relativistic equations of motion.

  TDB runs at a uniform rate of one SI second per second and is independent
of irregularities in Earth's rotation.
 
CALENDAR SYSTEM

  Mixed calendar mode was active such that calendar dates after AD 1582-Oct-15
(if any) are in the modern Gregorian system. Dates prior to 1582-Oct-5 (if any)
are in the Julian calendar system, which is automatically extended for dates
prior to its adoption on 45-Jan-1 BC.  The Julian calendar is useful for
matching historical dates. The Gregorian calendar more accurately corresponds
to the Earth's orbital motion and seasons. A "Gregorian-only" calendar mode is
available if such physical events are the primary interest.

REFERENCE FRAME AND COORDINATES

  Ecliptic at the standard reference epoch

    Reference epoch: J2000.0
    X-Y plane: adopted Earth orbital plane at the reference epoch
               Note: IAU76 obliquity of 84381.448 arcseconds wrt ICRF X-Y plane
    X-axis   : ICRF
    Z-axis   : perpendicular to the X-Y plane in the directional (+ or -) sense
               of Earth's north pole at the reference epoch.

  Symbol meaning:

    JDTDB    Julian Day Number, Barycentric Dynamical Time
      X      X-component of position vector (km)
      Y      Y-component of position vector (km)
      Z      Z-component of position vector (km)
      VX     X-component of velocity vector (km/sec)                           
      VY     Y-component of velocity vector (km/sec)                           
      VZ     Z-component of velocity vector (km/sec)                           

ABERRATIONS AND CORRECTIONS

 Geometric state vectors have NO corrections or aberrations applied.

Computations by ...

    Solar System Dynamics Group, Horizons On-Line Ephemeris System
    4800 Oak Grove Drive, Jet Propulsion Laboratory
    Pasadena, CA  91109   USA

    General site: https://ssd.jpl.nasa.gov/
    Mailing list: https://ssd.jpl.nasa.gov/email_list.html
    System news : https://ssd.jpl.nasa.gov/horizons/news.html
    User Guide  : https://ssd.jpl.nasa.gov/horizons/manual.html
    Connect     : browser        https://ssd.jpl.nasa.gov/horizons/app.html#/x
                  API            https://ssd-api.jpl.nasa.gov/doc/horizons.html
                  command-line   telnet ssd.jpl.nasa.gov 6775
                  e-mail/batch   https://ssd.jpl.nasa.gov/ftp/ssd/hrzn_batch.txt
                  scripts        https://ssd.jpl.nasa.gov/ftp/ssd/SCRIPTS
    Author      : Jon.D.Giorgini@jpl.nasa.gov
*******************************************************************************
